{
  "norad_id": 62810,
  "name": "STARLINK-32851",
  "history": [
    {
      "epoch": "2026-03-28T20:31:58.546272Z",
      "apogee_km": 476.1326749625514,
      "perigee_km": 474.221970929314,
      "latitude_deg": 1.1237503769142453e-07,
      "longitude_deg": 86.24886392329502,
      "height_km": 475.33794505093215,
      "semi_major_axis_km": 6853.314322945933,
      "eccentricity": 0.0001394,
      "inclination_deg": 53.1576,
      "raan_deg": 220.5128,
      "arg_perigee_deg": 39.4474,
      "mean_anomaly_deg": 320.6628,
      "mean_motion_rev_day": 15.30212642
    }
  ]
}