{"fetched_at":"2026-03-29T16:36:15Z","count":15609,"tles":[{"name":"STARLINK-32851","line1":"1 62810U 25018E   26087.85553873  .00024820  00000+0  84698-3 0  9993","line2":"2 62810  53.1576 220.5128 0001394  39.4474 320.6628 15.30212642 66100","category":"Starlink"}]}